[{"OBJECT_NAME":"STARLINK-4005","OBJECT_ID":"2022-053AG","EPOCH":"2026-03-09T10:27:10.364832","MEAN_MOTION":15.08834601,"ECCENTRICITY":0.00014565,"INCLINATION":53.2178,"RA_OF_ASC_NODE":145.5399,"ARG_OF_PERICENTER":100.1869,"MEAN_ANOMALY":259.9287,"EPHEMERIS_TYPE":0,"CLASSIFICATION_TYPE":"U","NORAD_CAT_ID":52686,"ELEMENT_SET_NO":999,"REV_AT_EPOCH":21108,"BSTAR":2.3463516e-5,"MEAN_MOTION_DOT":8.5e-7,"MEAN_MOTION_DDOT":0},{"OBJECT_NAME":"CZ-6A DEB","OBJECT_ID":"2024-140JQ","EPOCH":"2026-03-09T16:05:49.477056","MEAN_MOTION":15.15394204,"ECCENTRICITY":0.00800164,"INCLINATION":89.0638,"RA_OF_ASC_NODE":284.0631,"ARG_OF_PERICENTER":105.771,"MEAN_ANOMALY":255.2376,"EPHEMERIS_TYPE":0,"CLASSIFICATION_TYPE":"U","NORAD_CAT_ID":60861,"ELEMENT_SET_NO":999,"REV_AT_EPOCH":8511,"BSTAR":0.0025246282,"MEAN_MOTION_DOT":0.00051962,"MEAN_MOTION_DDOT":0}]
